     2.11           N: GPS NAV DATA                         RINEX VERSION / TYPE
teqc  2018Dec12     gpsops              20220103 01:04:12UTCPGM / RUN BY / DATE
Linux 2.6.32-573.12.1.x86_64|x86_64|gcc -static|Linux 64|=+ COMMENT
CHPI                                    MARKER NAME         COMMENT
41609M003                               MARKER NUMBER       COMMENT
4164613.9484 -4162456.9866 -2445028.7316                    COMMENT
                                                            COMMENT
This data is provided as a public service by NASA/JPL.      COMMENT
No warranty is expressed or implied regarding suitability   COMMENT
for use.  For further information, contact:                 COMMENT
Dave Stowers, NASA/JPL m/s 238-600                          COMMENT
4800 Oak Grove Drive, Pasadena CA 91109 USA                 COMMENT
                                                            END OF HEADER
27 22  1  2  2  0  0.0 4.268158227205D-05 2.501110429876D-11 0.000000000000D+00
    7.600000000000D+01 1.414062500000D+02 4.358038672661D-09 2.689292849830D+00
    7.210299372673D-06 9.941897122189D-03 2.235174179077D-06 5.153649765015D+03
    7.200000000000D+03-1.303851604462D-07-2.218209425166D+00-1.192092895508D-07
    9.738822769173D-01 3.428750000000D+02 6.279348254460D-01-8.079622262984D-09
    3.025126008641D-10 1.000000000000D+00 2.191000000000D+03 0.000000000000D+00
    2.800000000000D+00 0.000000000000D+00 1.862645149231D-09 7.600000000000D+01
    6.306000000000D+03 4.000000000000D+00
14 22  1  2  2 29 36.0-6.454344838858D-05-5.684341886081D-12 0.000000000000D+00
    3.700000000000D+01 1.084375000000D+02 4.264463346301D-09-5.916283293632D-01
    5.656853318214D-06 1.272848690860D-03 1.132488250732D-05 5.153654417038D+03
    8.976000000000D+03 3.725290298462D-08 3.059589178570D+00 0.000000000000D+00
    9.547479053111D-01 1.586250000000D+02 3.065424697346D+00-7.768895034233D-09
   -2.396528396456D-10 1.000000000000D+00 2.191000000000D+03 0.000000000000D+00
    2.000000000000D+00 0.000000000000D+00-7.916241884232D-09 5.490000000000D+02
    6.468000000000D+03 4.000000000000D+00
 7 22  1  2  4  0  0.0 2.975561656058D-04 3.979039320257D-12 0.000000000000D+00
    8.000000000000D+01-2.112500000000D+01 5.133428113600D-09 8.548621015122D-01
   -9.704381227493D-07 1.539082801901D-02 6.826594471931D-06 5.153696359634D+03
    1.440000000000D+04-2.179294824600D-07 1.978078684380D+00 9.685754776001D-08
    9.506556011816D-01 2.460000000000D+02-2.297264135712D+00-8.357133822454D-09
   -6.825284300487D-10 1.000000000000D+00 2.191000000000D+03 0.000000000000D+00
    2.000000000000D+00 0.000000000000D+00-1.117587089539D-08 8.000000000000D+01
    7.218000000000D+03 4.000000000000D+00
 9 22  1  2  4  0  0.0-3.590844571590D-04 1.023181539495D-12 0.000000000000D+00
    1.000000000000D+01 1.659375000000D+01 4.875917387245D-09-2.139568994002D+00
    8.549541234970D-07 2.363955369219D-03 7.534399628639D-06 5.153640523911D+03
    1.440000000000D+04-9.313225746155D-09 9.056757710197D-01 9.313225746155D-09
    9.537239796891D-01 2.310625000000D+02 1.854835098127D+00-8.017119659500D-09
    6.150256182857D-10 1.000000000000D+00 2.191000000000D+03 0.000000000000D+00
    2.000000000000D+00 0.000000000000D+00 1.396983861923D-09 1.000000000000D+01
    7.218000000000D+03 4.000000000000D+00
 4 22  1  2  4  0  0.0-1.967502757907D-04 1.591615728103D-12 0.000000000000D+00
    2.380000000000D+02 1.787500000000D+01 4.743411867858D-09-2.931649155686D+00
    9.443610906601D-07 1.630212413147D-03 7.338821887970D-06 5.153656875610D+03
    1.440000000000D+04 9.313225746155D-09 9.582870084318D-01-4.656612873077D-08
    9.607063691850D-01 2.385625000000D+02-3.122586598917D+00-7.907829392836D-09
    6.218116152354D-10 1.000000000000D+00 2.191000000000D+03 0.000000000000D+00
    2.000000000000D+00 0.000000000000D+00-4.190951585770D-09 1.006000000000D+03
    7.218000000000D+03 4.000000000000D+00
 3 22  1  2  4  0  0.0-6.254343315959D-05-1.386979420204D-11 0.000000000000D+00
    4.000000000000D+01-1.246250000000D+02 3.924806341081D-09 3.413797721121D-01
   -6.502494215965D-06 3.840179881081D-03 1.101195812225D-05 5.153712959290D+03
    1.440000000000D+04-1.117587089539D-08-1.225029020519D-01 8.940696716309D-08
    9.724543810969D-01 1.742500000000D+02 9.839047564738D-01-7.619960259073D-09
    1.882221259213D-10 1.000000000000D+00 2.191000000000D+03 0.000000000000D+00
    2.000000000000D+00 0.000000000000D+00 1.862645149231D-09 4.000000000000D+01
    7.218000000000D+03 4.000000000000D+00
30 22  1  2  4  0  0.0-5.037877708673D-04-2.728484105319D-12 0.000000000000D+00
    1.020000000000D+02-2.443750000000D+01 5.385224316209D-09 8.562778434092D-01
   -1.169741153717D-06 5.382034345530D-03 6.781890988350D-06 5.153588884354D+03
    1.440000000000D+04-5.215406417847D-08 1.991907700185D+00 1.005828380585D-07
    9.358392941487D-01 2.355937500000D+02-2.752389008370D+00-8.363919819404D-09
   -5.782383716635D-10 1.000000000000D+00 2.191000000000D+03 0.000000000000D+00
    2.000000000000D+00 0.000000000000D+00 3.725290298462D-09 1.020000000000D+02
    7.218000000000D+03 4.000000000000D+00
 6 22  1  2  4  0  0.0 1.591439358890D-04 1.057287590811D-11 0.000000000000D+00
    7.400000000000D+01-1.163125000000D+02 4.066597961557D-09 1.894244212315D+00
   -5.995854735374D-06 2.570897224359D-03 1.184642314911D-06 5.153648204803D+03
    1.440000000000D+04 7.450580596924D-09-1.166110116298D+00-7.264316082001D-08
    9.857724873923D-01 3.653125000000D+02-1.014852217903D+00-8.124266979758D-09
   -3.650152043484D-10 1.000000000000D+00 2.191000000000D+03 0.000000000000D+00
    2.000000000000D+00 0.000000000000D+00 4.190951585770D-09 7.400000000000D+01
    7.218000000000D+03 4.000000000000D+00
16 22  1  2  3 59 44.0-4.495577886701D-04-5.684341886081D-12 0.000000000000D+00
    3.500000000000D+01 1.350000000000D+02 3.870518365483D-09-1.674231490233D+00
    6.740912795067D-06 1.257610402536D-02 1.165084540844D-05 5.153588638306D+03
    1.438400000000D+04 1.247972249985D-07 3.108753127063D+00-1.434236764908D-07
    9.713107975535D-01 1.545937500000D+02 6.914536107783D-01-7.460310751888D-09
   -1.135761594744D-10 1.000000000000D+00 2.191000000000D+03 0.000000000000D+00
    2.000000000000D+00 0.000000000000D+00-1.024454832077D-08 3.500000000000D+01
    7.218000000000D+03 4.000000000000D+00
22 22  1  2  4  0  0.0-4.272414371371D-04 8.867573342286D-12 0.000000000000D+00
    6.800000000000D+01-1.410625000000D+02 4.610549190737D-09 2.614138919642D+00
   -7.303431630135D-06 6.851476035081D-03 1.032277941704D-05 5.153650974274D+03
    1.440000000000D+04 8.940696716309D-08-2.296255011895D-01 1.192092895508D-07
    9.383215911006D-01 1.666562500000D+02-8.644509458174D-01-7.855327205909D-09
    8.143196339671D-11 1.000000000000D+00 2.191000000000D+03 0.000000000000D+00
    2.000000000000D+00 6.300000000000D+01-1.769512891769D-08 6.800000000000D+01
    7.218000000000D+03 4.000000000000D+00
 8 22  1  2  4  0  0.0-5.045952275395D-05-1.477928890381D-12 0.000000000000D+00
    3.000000000000D+00 1.511875000000D+02 4.555546899671D-09-2.460006220448D+00
    7.720664143562D-06 7.055200054310D-03 2.374872565269D-06 5.153703863144D+03
    1.440000000000D+04-1.676380634308D-07-2.237336811339D+00-1.452863216400D-07
    9.652211289458D-01 3.395625000000D+02 7.197508673698D-02-8.296059849907D-09
    3.546576300567D-10 1.000000000000D+00 2.191000000000D+03 0.000000000000D+00
    2.000000000000D+00 0.000000000000D+00 5.122274160385D-09 3.000000000000D+00
    7.218000000000D+03 4.000000000000D+00
14 22  1  2  4  0  0.0-6.457464769483D-05-5.684341886081D-12 0.000000000000D+00
    3.800000000000D+01 1.068750000000D+02 4.285892810353D-09 1.996401907410D-01
    5.587935447693D-06 1.272368011996D-03 1.156516373158D-05 5.153653596878D+03
    1.440000000000D+04 2.793967723846D-08 3.059547026049D+00 2.048909664154D-08
    9.547465199277D-01 1.538125000000D+02 3.065299860694D+00-7.785324290006D-09
   -2.446530479243D-10 1.000000000000D+00 2.191000000000D+03 0.000000000000D+00
    2.000000000000D+00 0.000000000000D+00-7.916241884232D-09 5.500000000000D+02
    7.218000000000D+03 4.000000000000D+00
11 22  1  2  4  0  0.0-4.630535840988D-06-3.421973815421D-11 0.000000000000D+00
    2.020000000000D+02-1.368125000000D+02 4.592334146293D-09-2.529338046819D+00
   -7.145106792450D-06 3.303934354335D-04 1.890584826469D-06 5.153755979538D+03
    1.440000000000D+04-4.656612873077D-08-1.113020431529D+00-9.313225746155D-09
    9.615082121393D-01 3.416875000000D+02 2.777324726448D+00-8.338561620276D-09
   -3.385855320179D-10 1.000000000000D+00 2.191000000000D+03 0.000000000000D+00
    2.800000000000D+00 6.300000000000D+01-8.847564458847D-09 4.580000000000D+02
    7.218000000000D+03 4.000000000000D+00
27 22  1  2  4  0  0.0 4.286132752895D-05 2.489741746103D-11 0.000000000000D+00
    9.000000000000D+01 1.495312500000D+02 4.359110145863D-09-2.543727429006D+00
    7.521361112595D-06 9.940621792339D-03 1.940876245499D-06 5.153652080536D+03
    1.440000000000D+04 2.980232238770D-08-2.218268579722D+00-2.328306436539D-07
    9.738843484093D-01 3.499375000000D+02 6.279632792026D-01-8.192841264724D-09
    4.057311860468D-10 1.000000000000D+00 2.191000000000D+03 0.000000000000D+00
    2.800000000000D+00 0.000000000000D+00 1.862645149231D-09 9.000000000000D+01
    7.218000000000D+03 4.000000000000D+00
 2 22  1  2  4  0  0.0-6.475034169853D-04-1.023181539495D-12 0.000000000000D+00
    6.100000000000D+01-1.159375000000D+02 4.485186826034D-09 1.682363891335D+00
   -6.565824151039D-06 2.064512611832D-02-1.862645149231D-08 5.153670703888D+03
    1.440000000000D+04 2.868473529816D-07-1.246225543393D+00-4.004687070847D-07
    9.647175705991D-01 3.800937500000D+02-1.464171618659D+00-8.234628719625D-09
   -3.150131215609D-10 1.000000000000D+00 2.191000000000D+03 0.000000000000D+00
    2.000000000000D+00 0.000000000000D+00-1.769512891769D-08 6.100000000000D+01
    7.488000000000D+03 4.000000000000D+00
